CCSDS_OMM_VERS = 2.0
CREATION_DATE  = 
ORIGINATOR     = 

OBJECT_NAME    = SL-14 R/B
OBJECT_ID      = 1991-042B
CENTER_NAME    = EARTH
REF_FRAME      = TEME
TIME_SYSTEM    = UTC
MEAN_ELEMENT_THEORY = SGP/SGP4

EPOCH          = 2026-02-26T21:15:54.168768
MEAN_MOTION    = 14.81816533
ECCENTRICITY   = .0015558
INCLINATION    = 82.4904
RA_OF_ASC_NODE = 230.3143
ARG_OF_PERICENTER = 277.3623
MEAN_ANOMALY   = 82.5823

EPHEMERIS_TYPE = 0
CLASSIFICATION_TYPE = U
NORAD_CAT_ID   = 21423
ELEMENT_SET_NO = 999
REV_AT_EPOCH   = 85147
BSTAR          = .58176832E-4
MEAN_MOTION_DOT = .483E-5
MEAN_MOTION_DDOT = 0

CCSDS_OMM_VERS = 2.0
CREATION_DATE  = 
ORIGINATOR     = 

OBJECT_NAME    = ERS-1
OBJECT_ID      = 1991-050A
CENTER_NAME    = EARTH
REF_FRAME      = TEME
TIME_SYSTEM    = UTC
MEAN_ELEMENT_THEORY = SGP/SGP4

EPOCH          = 2026-02-26T12:08:40.316352
MEAN_MOTION    = 14.39439113
ECCENTRICITY   = .0031091
INCLINATION    = 98.7889
RA_OF_ASC_NODE = 75.4594
ARG_OF_PERICENTER = 234.2714
MEAN_ANOMALY   = 125.5579

EPHEMERIS_TYPE = 0
CLASSIFICATION_TYPE = U
NORAD_CAT_ID   = 21574
ELEMENT_SET_NO = 999
REV_AT_EPOCH   = 81412
BSTAR          = .11497E-3
MEAN_MOTION_DOT = .313E-5
MEAN_MOTION_DDOT = 0

CCSDS_OMM_VERS = 2.0
CREATION_DATE  = 
ORIGINATOR     = 

OBJECT_NAME    = ARIANE 40 R/B
OBJECT_ID      = 1991-050F
CENTER_NAME    = EARTH
REF_FRAME      = TEME
TIME_SYSTEM    = UTC
MEAN_ELEMENT_THEORY = SGP/SGP4

EPOCH          = 2026-02-26T04:01:11.954208
MEAN_MOTION    = 14.42883826
ECCENTRICITY   = .00043633
INCLINATION    = 98.2038
RA_OF_ASC_NODE = 109.8351
ARG_OF_PERICENTER = 106.1141
MEAN_ANOMALY   = 254.0530

EPHEMERIS_TYPE = 0
CLASSIFICATION_TYPE = U
NORAD_CAT_ID   = 21610
ELEMENT_SET_NO = 999
REV_AT_EPOCH   = 81733
BSTAR          = .91367429E-4
MEAN_MOTION_DOT = .263E-5
MEAN_MOTION_DDOT = 0

CCSDS_OMM_VERS = 2.0
CREATION_DATE  = 
ORIGINATOR     = 

OBJECT_NAME    = INTERCOSMOS 25
OBJECT_ID      = 1991-086A
CENTER_NAME    = EARTH
REF_FRAME      = TEME
TIME_SYSTEM    = UTC
MEAN_ELEMENT_THEORY = SGP/SGP4

EPOCH          = 2026-02-26T16:15:44.938944
MEAN_MOTION    = 12.11963375
ECCENTRICITY   = .14870915
INCLINATION    = 82.6070
RA_OF_ASC_NODE = 316.6632
ARG_OF_PERICENTER = 140.6557
MEAN_ANOMALY   = 231.2688

EPHEMERIS_TYPE = 0
CLASSIFICATION_TYPE = U
NORAD_CAT_ID   = 21819
ELEMENT_SET_NO = 999
REV_AT_EPOCH   = 49535
BSTAR          = .29140422E-3
MEAN_MOTION_DOT = .1518E-4
MEAN_MOTION_DDOT = 0

CCSDS_OMM_VERS = 2.0
CREATION_DATE  = 
ORIGINATOR     = 

OBJECT_NAME    = SL-8 R/B
OBJECT_ID      = 1992-008B
CENTER_NAME    = EARTH
REF_FRAME      = TEME
TIME_SYSTEM    = UTC
MEAN_ELEMENT_THEORY = SGP/SGP4

EPOCH          = 2026-02-26T14:09:00.574272
MEAN_MOTION    = 13.75969910
ECCENTRICITY   = .0034978
INCLINATION    = 82.9233
RA_OF_ASC_NODE = 276.0374
ARG_OF_PERICENTER = 163.6890
MEAN_ANOMALY   = 225.1875

EPHEMERIS_TYPE = 0
CLASSIFICATION_TYPE = U
NORAD_CAT_ID   = 21876
ELEMENT_SET_NO = 999
REV_AT_EPOCH   = 70789
BSTAR          = -.4048E-5
MEAN_MOTION_DOT = .11E-6
MEAN_MOTION_DDOT = 0

CCSDS_OMM_VERS = 2.0
CREATION_DATE  = 
ORIGINATOR     = 

OBJECT_NAME    = SL-8 R/B
OBJECT_ID      = 1992-020B
CENTER_NAME    = EARTH
REF_FRAME      = TEME
TIME_SYSTEM    = UTC
MEAN_ELEMENT_THEORY = SGP/SGP4

EPOCH          = 2026-02-26T10:04:28.574688
MEAN_MOTION    = 13.75548007
ECCENTRICITY   = .0028157
INCLINATION    = 82.9344
RA_OF_ASC_NODE = 162.1265
ARG_OF_PERICENTER = 331.4719
MEAN_ANOMALY   = 100.2403

EPHEMERIS_TYPE = 0
CLASSIFICATION_TYPE = U
NORAD_CAT_ID   = 21938
ELEMENT_SET_NO = 999
REV_AT_EPOCH   = 69958
BSTAR          = .5609E-4
MEAN_MOTION_DOT = .69E-6
MEAN_MOTION_DDOT = 0

CCSDS_OMM_VERS = 2.0
CREATION_DATE  = 
ORIGINATOR     = 

OBJECT_NAME    = USA 81
OBJECT_ID      = 1992-023A
CENTER_NAME    = EARTH
REF_FRAME      = TEME
TIME_SYSTEM    = UTC
MEAN_ELEMENT_THEORY = SGP/SGP4

EPOCH          = 2026-02-26T14:54:37.643328
MEAN_MOTION    = 14.32363681
ECCENTRICITY   = .0002724
INCLINATION    = 85.0106
RA_OF_ASC_NODE = 137.8250
ARG_OF_PERICENTER = 87.1141
MEAN_ANOMALY   = 273.0363

EPHEMERIS_TYPE = 0
CLASSIFICATION_TYPE = U
NORAD_CAT_ID   = 21949
ELEMENT_SET_NO = 999
REV_AT_EPOCH   = 9320
BSTAR          = .5574E-4
MEAN_MOTION_DOT = .17E-5
MEAN_MOTION_DDOT = 0

CCSDS_OMM_VERS = 2.0
CREATION_DATE  = 
ORIGINATOR     = 

OBJECT_NAME    = COSMOS 2219
OBJECT_ID      = 1992-076A
CENTER_NAME    = EARTH
REF_FRAME      = TEME
TIME_SYSTEM    = UTC
MEAN_ELEMENT_THEORY = SGP/SGP4

EPOCH          = 2026-02-26T09:57:45.231840
MEAN_MOTION    = 14.14084969
ECCENTRICITY   = .0019509
INCLINATION    = 71.0602
RA_OF_ASC_NODE = 41.6362
ARG_OF_PERICENTER = 222.0626
MEAN_ANOMALY   = 137.9000

EPHEMERIS_TYPE = 0
CLASSIFICATION_TYPE = U
NORAD_CAT_ID   = 22219
ELEMENT_SET_NO = 999
REV_AT_EPOCH   = 71678
BSTAR          = .21719E-3
MEAN_MOTION_DOT = .367E-5
MEAN_MOTION_DDOT = 0

CCSDS_OMM_VERS = 2.0
CREATION_DATE  = 
ORIGINATOR     = 

OBJECT_NAME    = SL-16 R/B
OBJECT_ID      = 1992-076B
CENTER_NAME    = EARTH
REF_FRAME      = TEME
TIME_SYSTEM    = UTC
MEAN_ELEMENT_THEORY = SGP/SGP4

EPOCH          = 2026-02-26T22:00:17.777952
MEAN_MOTION    = 14.16857771
ECCENTRICITY   = .00108437
INCLINATION    = 70.9990
RA_OF_ASC_NODE = 211.0647
ARG_OF_PERICENTER = 116.1618
MEAN_ANOMALY   = 57.4316

EPHEMERIS_TYPE = 0
CLASSIFICATION_TYPE = U
NORAD_CAT_ID   = 22220
ELEMENT_SET_NO = 999
REV_AT_EPOCH   = 72030
BSTAR          = .1690797E-3
MEAN_MOTION_DOT = .291E-5
MEAN_MOTION_DDOT = 0

CCSDS_OMM_VERS = 2.0
CREATION_DATE  = 
ORIGINATOR     = 

OBJECT_NAME    = COSMOS 2221
OBJECT_ID      = 1992-080A
CENTER_NAME    = EARTH
REF_FRAME      = TEME
TIME_SYSTEM    = UTC
MEAN_ELEMENT_THEORY = SGP/SGP4

EPOCH          = 2026-02-26T22:28:54.817248
MEAN_MOTION    = 14.96153136
ECCENTRICITY   = .00131247
INCLINATION    = 82.5028
RA_OF_ASC_NODE = 289.3821
ARG_OF_PERICENTER = 225.2775
MEAN_ANOMALY   = 134.7380

EPHEMERIS_TYPE = 0
CLASSIFICATION_TYPE = U
NORAD_CAT_ID   = 22236
ELEMENT_SET_NO = 999
REV_AT_EPOCH   = 77918
BSTAR          = .15251746E-3
MEAN_MOTION_DOT = .1745E-4
MEAN_MOTION_DDOT = 0

CCSDS_OMM_VERS = 2.0
CREATION_DATE  = 
ORIGINATOR     = 

OBJECT_NAME    = SL-16 R/B
OBJECT_ID      = 1992-093B
CENTER_NAME    = EARTH
REF_FRAME      = TEME
TIME_SYSTEM    = UTC
MEAN_ELEMENT_THEORY = SGP/SGP4

EPOCH          = 2026-02-26T20:33:04.902336
MEAN_MOTION    = 14.15449594
ECCENTRICITY   = .00060696
INCLINATION    = 71.0230
RA_OF_ASC_NODE = 27.0063
ARG_OF_PERICENTER = 305.3101
MEAN_ANOMALY   = 54.7454

EPHEMERIS_TYPE = 0
CLASSIFICATION_TYPE = U
NORAD_CAT_ID   = 22285
ELEMENT_SET_NO = 999
REV_AT_EPOCH   = 71162
BSTAR          = .52491792E-4
MEAN_MOTION_DOT = .55E-6
MEAN_MOTION_DDOT = 0

CCSDS_OMM_VERS = 2.0
CREATION_DATE  = 
ORIGINATOR     = 

OBJECT_NAME    = COSMOS 2228
OBJECT_ID      = 1992-094A
CENTER_NAME    = EARTH
REF_FRAME      = TEME
TIME_SYSTEM    = UTC
MEAN_ELEMENT_THEORY = SGP/SGP4

EPOCH          = 2026-02-26T21:26:25.536768
MEAN_MOTION    = 14.97128901
ECCENTRICITY   = .00175226
INCLINATION    = 82.5146
RA_OF_ASC_NODE = 247.6495
ARG_OF_PERICENTER = 342.8338
MEAN_ANOMALY   = 17.2290

EPHEMERIS_TYPE = 0
CLASSIFICATION_TYPE = U
NORAD_CAT_ID   = 22286
ELEMENT_SET_NO = 999
REV_AT_EPOCH   = 77444
BSTAR          = .16402484E-3
MEAN_MOTION_DOT = .1924E-4
MEAN_MOTION_DDOT = 0

